[
    {
        "Altitude(m)": 607895.8522016248,
        "Argument of Periapsis(deg)": 0.0,
        "Eccentricity": 0.0,
        "Inclination(deg)": 60.0,
        "Latitude(deg)": 40.99843389847446,
        "Longitude(deg)": 130.0886998701827,
        "Mean Anomaly(deg)": 130.9091,
        "RAAN(deg)": 80.0,
        "Satellite Name": "Test1 360",
        "Satellite Number": 360,
        "Semi-Major Axis(m)": 6980739.136638005,
        "Time(s)": 0
    },
    {
        "Altitude(m)": 607795.1647575147,
        "Argument of Periapsis(deg)": 0.00010418945913296404,
        "Eccentricity": 0.0,
        "Inclination(deg)": 60.0,
        "Latitude(deg)": 40.53075761798532,
        "Longitude(deg)": 130.58529350851705,
        "Mean Anomaly(deg)": 131.5292061454618,
        "RAAN(deg)": 79.99957995086025,
        "Satellite Name": "Test1 360",
        "Satellite Number": 360,
        "Semi-Major Axis(m)": 6980739.136638005,
        "Time(s)": 10
    },
    {
        "Altitude(m)": 607694.6528551524,
        "Argument of Periapsis(deg)": 0.0002083789182659281,
        "Eccentricity": 0.0,
        "Inclination(deg)": 60.0,
        "Latitude(deg)": 40.06057138779204,
        "Longitude(deg)": 131.07444624902004,
        "Mean Anomaly(deg)": 132.14931229092366,
        "RAAN(deg)": 79.99915990172052,
        "Satellite Name": "Test1 360",
        "Satellite Number": 360,
        "Semi-Major Axis(m)": 6980739.136638005,
        "Time(s)": 20
    },
    {
        "Altitude(m)": 607594.3801933783,
        "Argument of Periapsis(deg)": 0.00031256837739889213,
        "Eccentricity": 0.0,
        "Inclination(deg)": 60.0,
        "Latitude(deg)": 39.587948781755266,
        "Longitude(deg)": 131.55634369876705,
        "Mean Anomaly(deg)": 132.7694184363855,
        "RAAN(deg)": 79.99873985258077,
        "Satellite Name": "Test1 360",
        "Satellite Number": 360,
        "Semi-Major Axis(m)": 6980739.136638005,
        "Time(s)": 30
    },
    {
        "Altitude(m)": 607494.4105713867,
        "Argument of Periapsis(deg)": 0.0004167578365318562,
        "Eccentricity": 0.0,
        "Inclination(deg)": 60.0,
        "Latitude(deg)": 39.11296113356216,
        "Longitude(deg)": 132.03116842486065,
        "Mean Anomaly(deg)": 133.38952458184733,
        "RAAN(deg)": 79.99831980344103,
        "Satellite Name": "Test1 360",
        "Satellite Number": 360,
        "Semi-Major Axis(m)": 6980739.136638005,
        "Time(s)": 40
    },
    {
        "Altitude(m)": 607394.8078568354,
        "Argument of Periapsis(deg)": 0.0005209472956648203,
        "Eccentricity": 0.0,
        "Inclination(deg)": 60.0,
        "Latitude(deg)": 38.63567761008873,
        "Longitude(deg)": 132.49909893398467,
        "Mean Anomaly(deg)": 134.00963072730917,
        "RAAN(deg)": 79.99789975430129,
        "Satellite Name": "Test1 360",
        "Satellite Number": 360,
        "Semi-Major Axis(m)": 6980739.136638005,
        "Time(s)": 50
    },
    {
        "Altitude(m)": 607295.6359538401,
        "Argument of Periapsis(deg)": 0.0006251367547977843,
        "Eccentricity": 0.0,
        "Inclination(deg)": 60.0,
        "Latitude(deg)": 38.15616528322062,
        "Longitude(deg)": 132.9603101756505,
        "Mean Anomaly(deg)": 134.62973687277102,
        "RAAN(deg)": 79.99747970516155,
        "Satellite Name": "Test1 360",
        "Satellite Number": 360,
        "Semi-Major Axis(m)": 6980739.136638005,
        "Time(s)": 60
    },
    {
        "Altitude(m)": 607196.95877091,
        "Argument of Periapsis(deg)": 0.0007293262139307483,
        "Eccentricity": 0.0,
        "Inclination(deg)": 60.0,
        "Latitude(deg)": 37.67448920006629,
        "Longitude(deg)": 133.4149740551287,
        "Mean Anomaly(deg)": 135.2498430182328,
        "RAAN(deg)": 79.9970596560218,
        "Satellite Name": "Test1 360",
        "Satellite Number": 360,
        "Semi-Major Axis(m)": 6980739.136638005,
        "Time(s)": 70
    },
    {
        "Altitude(m)": 607098.8401888324,
        "Argument of Periapsis(deg)": 0.0008335156730637124,
        "Eccentricity": 0.0,
        "Inclination(deg)": 60.0,
        "Latitude(deg)": 37.1907124515108,
        "Longitude(deg)": 133.86325844214392,
        "Mean Anomaly(deg)": 135.86994916369463,
        "RAAN(deg)": 79.99663960688207,
        "Satellite Name": "Test1 360",
        "Satellite Number": 360,
        "Semi-Major Axis(m)": 6980739.136638005,
        "Time(s)": 80
    },
    {
        "Altitude(m)": 607001.3440285149,
        "Argument of Periapsis(deg)": 0.0009377051321966765,
        "Eccentricity": 0.0,
        "Inclination(deg)": 60.0,
        "Latitude(deg)": 36.704896239068574,
        "Longitude(deg)": 134.30532770012206,
        "Mean Anomaly(deg)": 136.49005530915647,
        "RAAN(deg)": 79.99621955774232,
        "Satellite Name": "Test1 360",
        "Satellite Number": 360,
        "Semi-Major Axis(m)": 6980739.136638005,
        "Time(s)": 90
    },
    {
        "Altitude(m)": 606904.5340187879,
        "Argument of Periapsis(deg)": 0.0010418945913296407,
        "Eccentricity": 0.0,
        "Inclination(deg)": 60.0,
        "Latitude(deg)": 36.21709994000779,
        "Longitude(deg)": 134.74134322223276,
        "Mean Anomaly(deg)": 137.11016145461832,
        "RAAN(deg)": 79.99579950860256,
        "Satellite Name": "Test1 360",
        "Satellite Number": 360,
        "Semi-Major Axis(m)": 6980739.136638005,
        "Time(s)": 100
    },
    {
        "Altitude(m)": 606808.4737642282,
        "Argument of Periapsis(deg)": 0.0011460840504626045,
        "Eccentricity": 0.0,
        "Inclination(deg)": 60.0,
        "Latitude(deg)": 35.72738117073155,
        "Longitude(deg)": 135.1714624605418,
        "Mean Anomaly(deg)": 137.73026760008014,
        "RAAN(deg)": 79.99537945946282,
        "Satellite Name": "Test1 360",
        "Satellite Number": 360,
        "Semi-Major Axis(m)": 6980739.136638005,
        "Time(s)": 110
    },
    {
        "Altitude(m)": 606713.2267129599,
        "Argument of Periapsis(deg)": 0.0012502735095955685,
        "Eccentricity": 0.0,
        "Inclination(deg)": 60.0,
        "Latitude(deg)": 35.235795848403775,
        "Longitude(deg)": 135.59583947328426,
        "Mean Anomaly(deg)": 138.35037374554196,
        "RAAN(deg)": 79.99495941032308,
        "Satellite Name": "Test1 360",
        "Satellite Number": 360,
        "Semi-Major Axis(m)": 6980739.136638005,
        "Time(s)": 120
    },
    {
        "Altitude(m)": 606618.8561244855,
        "Argument of Periapsis(deg)": 0.0013544629687285324,
        "Eccentricity": 0.0,
        "Inclination(deg)": 60.0,
        "Latitude(deg)": 34.74239825082238,
        "Longitude(deg)": 136.01462547670707,
        "Mean Anomaly(deg)": 138.97047989100378,
        "RAAN(deg)": 79.99453936118334,
        "Satellite Name": "Test1 360",
        "Satellite Number": 360,
        "Semi-Major Axis(m)": 6980739.136638005,
        "Time(s)": 130
    },
    {
        "Altitude(m)": 606525.4250375659,
        "Argument of Periapsis(deg)": 0.0014586524278614966,
        "Eccentricity": 0.0,
        "Inclination(deg)": 60.0,
        "Latitude(deg)": 34.24724107454728,
        "Longitude(deg)": 136.42796788798998,
        "Mean Anomaly(deg)": 139.59058603646565,
        "RAAN(deg)": 79.99411931204361,
        "Satellite Name": "Test1 360",
        "Satellite Number": 360,
        "Semi-Major Axis(m)": 6980739.136638005,
        "Time(s)": 140
    },
    {
        "Altitude(m)": 606432.9962381374,
        "Argument of Periapsis(deg)": 0.0015628418869944607,
        "Eccentricity": 0.0,
        "Inclination(deg)": 60.0,
        "Latitude(deg)": 33.75037549129377,
        "Longitude(deg)": 136.83601088443464,
        "Mean Anomaly(deg)": 140.2106921819275,
        "RAAN(deg)": 79.99369926290386,
        "Satellite Name": "Test1 360",
        "Satellite Number": 360,
        "Semi-Major Axis(m)": 6980739.136638005,
        "Time(s)": 150
    },
    {
        "Altitude(m)": 606341.63222732,
        "Argument of Periapsis(deg)": 0.0016670313461274247,
        "Eccentricity": 0.0,
        "Inclination(deg)": 60.0,
        "Latitude(deg)": 33.25185120261098,
        "Longitude(deg)": 137.23889596553724,
        "Mean Anomaly(deg)": 140.8307983273893,
        "RAAN(deg)": 79.99327921376411,
        "Satellite Name": "Test1 360",
        "Satellite Number": 360,
        "Semi-Major Axis(m)": 6980739.136638005,
        "Time(s)": 160
    },
    {
        "Altitude(m)": 606251.3951894811,
        "Argument of Periapsis(deg)": 0.0017712208052603888,
        "Eccentricity": 0.0,
        "Inclination(deg)": 60.0,
        "Latitude(deg)": 32.75171649286999,
        "Longitude(deg)": 137.63676100460955,
        "Mean Anomaly(deg)": 141.4509044728511,
        "RAAN(deg)": 79.99285916462436,
        "Satellite Name": "Test1 360",
        "Satellite Number": 360,
        "Semi-Major Axis(m)": 6980739.136638005,
        "Time(s)": 170
    },
    {
        "Altitude(m)": 606162.3469604236,
        "Argument of Periapsis(deg)": 0.001875410264393353,
        "Eccentricity": 0.0,
        "Inclination(deg)": 60.0,
        "Latitude(deg)": 32.25001828058505,
        "Longitude(deg)": 138.0297408152798,
        "Mean Anomaly(deg)": 142.07101061831295,
        "RAAN(deg)": 79.99243911548463,
        "Satellite Name": "Test1 360",
        "Satellite Number": 360,
        "Semi-Major Axis(m)": 6980739.136638005,
        "Time(s)": 180
    },
    {
        "Altitude(m)": 606074.5489956805,
        "Argument of Periapsis(deg)": 0.0019795997235263173,
        "Eccentricity": 0.0,
        "Inclination(deg)": 60.0,
        "Latitude(deg)": 31.746802168099897,
        "Longitude(deg)": 138.41796771962234,
        "Mean Anomaly(deg)": 142.6911167637748,
        "RAAN(deg)": 79.99201906634488,
        "Satellite Name": "Test1 360",
        "Satellite Number": 360,
        "Semi-Major Axis(m)": 6980739.136638005,
        "Time(s)": 190
    }
]